ATLAS CENTAUR R/B       
1 06155U 72065B   26082.67959223  .00001300  00000+0  18014-3 0  9998
2 06155  35.0006 223.7640 0032982 128.5005 231.8660 14.77724497843331
SL-8 R/B                
1 08459U 75112B   26082.90181177  .00000250  00000+0  90841-4 0  9996
2 08459  74.0636 352.7706 0014483  80.0844 280.1944 14.38211814633911
SL-3 R/B                
1 10114U 77057B   26082.96130736  .00013232  00000+0  27388-3 0  9997
2 10114  97.5797 255.5159 0006499 224.1977 135.8753 15.45892634670535
SEASAT 1                
1 10967U 78064A   26082.95305157  .00000255  00000+0  10957-3 0  9997
2 10967 108.0082 155.4283 0002545 279.1939  80.8918 14.46171475508577
SL-14 R/B               
1 11267U 79011B   26082.73214748  .00000609  00000+0  57533-4 0  9990
2 11267  82.5206  83.2415 0016437  16.4099 343.7649 14.91924943530870
SL-8 R/B                
1 11574U 79089B   26082.96414461  .00000193  00000+0  66251-4 0  9990
2 11574  74.0677  64.6168 0016893 235.5868 124.3692 14.42358335438163
SL-14 R/B               
1 11672U 80005B   26082.95576053  .00000560  00000+0  54004-4 0  9995
2 11672  82.5118 293.7015 0017135 113.7175 246.5845 14.90945627478610
SL-8 R/B                
1 12139U 81003B   26082.77318139  .00020231  00000+0  50978-3 0  9994
2 12139  82.9352 276.9948 0261285 129.5845 232.8784 15.11574549316804
SL-3 R/B                
1 12465U 81046B   26082.92920875  .00011575  00000+0  26616-3 0  9999
2 12465  81.2286 272.6376 0018454 332.2398  27.7858 15.42337912440622
SL-3 R/B                
1 12904U 81103B   26082.84637002  .00006063  00000+0  26754-3 0  9998
2 12904  81.1608 196.8256 0012598 235.6436 124.3605 15.21543256975380
SL-3 R/B                
1 13068U 82013B   26082.91443403  .00004822  00000+0  20767-3 0  9998
2 13068  81.1741 144.0985 0023402 130.4381 229.8897 15.22144330406510
SL-3 R/B                
1 13154U 82039B   26082.90273295  .00002930  00000+0  17651-3 0  9997
2 13154  81.1575 199.5742 0028950 277.6806  82.1131 15.10158733383789
