CCSDS_OMM_VERS = 2.0
CREATION_DATE  = 
ORIGINATOR     = 

OBJECT_NAME    = ATLAS CENTAUR R/B
OBJECT_ID      = 1972-065B
CENTER_NAME    = EARTH
REF_FRAME      = TEME
TIME_SYSTEM    = UTC
MEAN_ELEMENT_THEORY = SGP/SGP4

EPOCH          = 2026-03-23T16:18:36.768672
MEAN_MOTION    = 14.77724497
ECCENTRICITY   = .00329829
INCLINATION    = 35.0006
RA_OF_ASC_NODE = 223.7640
ARG_OF_PERICENTER = 128.5005
MEAN_ANOMALY   = 231.8660

EPHEMERIS_TYPE = 0
CLASSIFICATION_TYPE = U
NORAD_CAT_ID   = 6155
ELEMENT_SET_NO = 999
REV_AT_EPOCH   = 84333
BSTAR          = .18013999E-3
MEAN_MOTION_DOT = .13E-4
MEAN_MOTION_DDOT = 0

CCSDS_OMM_VERS = 2.0
CREATION_DATE  = 
ORIGINATOR     = 

OBJECT_NAME    = SL-8 R/B
OBJECT_ID      = 1975-112B
CENTER_NAME    = EARTH
REF_FRAME      = TEME
TIME_SYSTEM    = UTC
MEAN_ELEMENT_THEORY = SGP/SGP4

EPOCH          = 2026-03-23T21:38:36.536928
MEAN_MOTION    = 14.38211814
ECCENTRICITY   = .00144832
INCLINATION    = 74.0636
RA_OF_ASC_NODE = 352.7706
ARG_OF_PERICENTER = 80.0844
MEAN_ANOMALY   = 280.1944

EPHEMERIS_TYPE = 0
CLASSIFICATION_TYPE = U
NORAD_CAT_ID   = 8459
ELEMENT_SET_NO = 999
REV_AT_EPOCH   = 63391
BSTAR          = .90841292E-4
MEAN_MOTION_DOT = .25E-5
MEAN_MOTION_DDOT = 0

CCSDS_OMM_VERS = 2.0
CREATION_DATE  = 
ORIGINATOR     = 

OBJECT_NAME    = SL-3 R/B
OBJECT_ID      = 1977-057B
CENTER_NAME    = EARTH
REF_FRAME      = TEME
TIME_SYSTEM    = UTC
MEAN_ELEMENT_THEORY = SGP/SGP4

EPOCH          = 2026-03-23T23:04:16.955904
MEAN_MOTION    = 15.45892634
ECCENTRICITY   = .00064995
INCLINATION    = 97.5797
RA_OF_ASC_NODE = 255.5159
ARG_OF_PERICENTER = 224.1977
MEAN_ANOMALY   = 135.8753

EPHEMERIS_TYPE = 0
CLASSIFICATION_TYPE = U
NORAD_CAT_ID   = 10114
ELEMENT_SET_NO = 999
REV_AT_EPOCH   = 67053
BSTAR          = .27388349E-3
MEAN_MOTION_DOT = .13232E-3
MEAN_MOTION_DDOT = 0

CCSDS_OMM_VERS = 2.0
CREATION_DATE  = 
ORIGINATOR     = 

OBJECT_NAME    = SEASAT 1
OBJECT_ID      = 1978-064A
CENTER_NAME    = EARTH
REF_FRAME      = TEME
TIME_SYSTEM    = UTC
MEAN_ELEMENT_THEORY = SGP/SGP4

EPOCH          = 2026-03-23T22:52:23.655648
MEAN_MOTION    = 14.46171475
ECCENTRICITY   = .00025452
INCLINATION    = 108.0082
RA_OF_ASC_NODE = 155.4283
ARG_OF_PERICENTER = 279.1939
MEAN_ANOMALY   = 80.8918

EPHEMERIS_TYPE = 0
CLASSIFICATION_TYPE = U
NORAD_CAT_ID   = 10967
ELEMENT_SET_NO = 999
REV_AT_EPOCH   = 50857
BSTAR          = .10957274E-3
MEAN_MOTION_DOT = .255E-5
MEAN_MOTION_DDOT = 0

CCSDS_OMM_VERS = 2.0
CREATION_DATE  = 
ORIGINATOR     = 

OBJECT_NAME    = SL-14 R/B
OBJECT_ID      = 1979-011B
CENTER_NAME    = EARTH
REF_FRAME      = TEME
TIME_SYSTEM    = UTC
MEAN_ELEMENT_THEORY = SGP/SGP4

EPOCH          = 2026-03-23T17:34:17.542272
MEAN_MOTION    = 14.91924943
ECCENTRICITY   = .00164379
INCLINATION    = 82.5206
RA_OF_ASC_NODE = 83.2415
ARG_OF_PERICENTER = 16.4099
MEAN_ANOMALY   = 343.7649

EPHEMERIS_TYPE = 0
CLASSIFICATION_TYPE = U
NORAD_CAT_ID   = 11267
ELEMENT_SET_NO = 999
REV_AT_EPOCH   = 53087
BSTAR          = .57533252E-4
MEAN_MOTION_DOT = .609E-5
MEAN_MOTION_DDOT = 0

CCSDS_OMM_VERS = 2.0
CREATION_DATE  = 
ORIGINATOR     = 

OBJECT_NAME    = SL-8 R/B
OBJECT_ID      = 1979-089B
CENTER_NAME    = EARTH
REF_FRAME      = TEME
TIME_SYSTEM    = UTC
MEAN_ELEMENT_THEORY = SGP/SGP4

EPOCH          = 2026-03-23T23:08:22.094304
MEAN_MOTION    = 14.42358335
ECCENTRICITY   = .00168937
INCLINATION    = 74.0677
RA_OF_ASC_NODE = 64.6168
ARG_OF_PERICENTER = 235.5868
MEAN_ANOMALY   = 124.3692

EPHEMERIS_TYPE = 0
CLASSIFICATION_TYPE = U
NORAD_CAT_ID   = 11574
ELEMENT_SET_NO = 999
REV_AT_EPOCH   = 43816
BSTAR          = .66250787E-4
MEAN_MOTION_DOT = .193E-5
MEAN_MOTION_DDOT = 0

CCSDS_OMM_VERS = 2.0
CREATION_DATE  = 
ORIGINATOR     = 

OBJECT_NAME    = SL-14 R/B
OBJECT_ID      = 1980-005B
CENTER_NAME    = EARTH
REF_FRAME      = TEME
TIME_SYSTEM    = UTC
MEAN_ELEMENT_THEORY = SGP/SGP4

EPOCH          = 2026-03-23T22:56:17.709792
MEAN_MOTION    = 14.90945627
ECCENTRICITY   = .00171359
INCLINATION    = 82.5118
RA_OF_ASC_NODE = 293.7015
ARG_OF_PERICENTER = 113.7175
MEAN_ANOMALY   = 246.5845

EPHEMERIS_TYPE = 0
CLASSIFICATION_TYPE = U
NORAD_CAT_ID   = 11672
ELEMENT_SET_NO = 999
REV_AT_EPOCH   = 47861
BSTAR          = .54004201E-4
MEAN_MOTION_DOT = .56E-5
MEAN_MOTION_DDOT = 0

CCSDS_OMM_VERS = 2.0
CREATION_DATE  = 
ORIGINATOR     = 

OBJECT_NAME    = SL-8 R/B
OBJECT_ID      = 1981-003B
CENTER_NAME    = EARTH
REF_FRAME      = TEME
TIME_SYSTEM    = UTC
MEAN_ELEMENT_THEORY = SGP/SGP4

EPOCH          = 2026-03-23T18:33:22.872096
MEAN_MOTION    = 15.11574549
ECCENTRICITY   = .02612851
INCLINATION    = 82.9352
RA_OF_ASC_NODE = 276.9948
ARG_OF_PERICENTER = 129.5845
MEAN_ANOMALY   = 232.8784

EPHEMERIS_TYPE = 0
CLASSIFICATION_TYPE = U
NORAD_CAT_ID   = 12139
ELEMENT_SET_NO = 999
REV_AT_EPOCH   = 31680
BSTAR          = .50978248E-3
MEAN_MOTION_DOT = .20231E-3
MEAN_MOTION_DDOT = 0

CCSDS_OMM_VERS = 2.0
CREATION_DATE  = 
ORIGINATOR     = 

OBJECT_NAME    = SL-3 R/B
OBJECT_ID      = 1981-046B
CENTER_NAME    = EARTH
REF_FRAME      = TEME
TIME_SYSTEM    = UTC
MEAN_ELEMENT_THEORY = SGP/SGP4

EPOCH          = 2026-03-23T22:18:03.636000
MEAN_MOTION    = 15.42337912
ECCENTRICITY   = .00184547
INCLINATION    = 81.2286
RA_OF_ASC_NODE = 272.6376
ARG_OF_PERICENTER = 332.2398
MEAN_ANOMALY   = 27.7858

EPHEMERIS_TYPE = 0
CLASSIFICATION_TYPE = U
NORAD_CAT_ID   = 12465
ELEMENT_SET_NO = 999
REV_AT_EPOCH   = 44062
BSTAR          = .26616427E-3
MEAN_MOTION_DOT = .11575E-3
MEAN_MOTION_DDOT = 0

CCSDS_OMM_VERS = 2.0
CREATION_DATE  = 
ORIGINATOR     = 

OBJECT_NAME    = SL-3 R/B
OBJECT_ID      = 1981-103B
CENTER_NAME    = EARTH
REF_FRAME      = TEME
TIME_SYSTEM    = UTC
MEAN_ELEMENT_THEORY = SGP/SGP4

EPOCH          = 2026-03-23T20:18:46.369728
MEAN_MOTION    = 15.21543256
ECCENTRICITY   = .00125984
INCLINATION    = 81.1608
RA_OF_ASC_NODE = 196.8256
ARG_OF_PERICENTER = 235.6436
MEAN_ANOMALY   = 124.3605

EPHEMERIS_TYPE = 0
CLASSIFICATION_TYPE = U
NORAD_CAT_ID   = 12904
ELEMENT_SET_NO = 999
REV_AT_EPOCH   = 97538
BSTAR          = .26753769E-3
MEAN_MOTION_DOT = .6063E-4
MEAN_MOTION_DDOT = 0

CCSDS_OMM_VERS = 2.0
CREATION_DATE  = 
ORIGINATOR     = 

OBJECT_NAME    = SL-3 R/B
OBJECT_ID      = 1982-013B
CENTER_NAME    = EARTH
REF_FRAME      = TEME
TIME_SYSTEM    = UTC
MEAN_ELEMENT_THEORY = SGP/SGP4

EPOCH          = 2026-03-23T21:56:47.100192
MEAN_MOTION    = 15.22144330
ECCENTRICITY   = .00234022
INCLINATION    = 81.1741
RA_OF_ASC_NODE = 144.0985
ARG_OF_PERICENTER = 130.4381
MEAN_ANOMALY   = 229.8897

EPHEMERIS_TYPE = 0
CLASSIFICATION_TYPE = U
NORAD_CAT_ID   = 13068
ELEMENT_SET_NO = 999
REV_AT_EPOCH   = 40651
BSTAR          = .20767379E-3
MEAN_MOTION_DOT = .4822E-4
MEAN_MOTION_DDOT = 0

CCSDS_OMM_VERS = 2.0
CREATION_DATE  = 
ORIGINATOR     = 

OBJECT_NAME    = SL-3 R/B
OBJECT_ID      = 1982-039B
CENTER_NAME    = EARTH
REF_FRAME      = TEME
TIME_SYSTEM    = UTC
MEAN_ELEMENT_THEORY = SGP/SGP4

EPOCH          = 2026-03-23T21:39:56.126880
MEAN_MOTION    = 15.10158733
ECCENTRICITY   = .00289508
INCLINATION    = 81.1575
RA_OF_ASC_NODE = 199.5742
ARG_OF_PERICENTER = 277.6806
MEAN_ANOMALY   = 82.1131

EPHEMERIS_TYPE = 0
CLASSIFICATION_TYPE = U
NORAD_CAT_ID   = 13154
ELEMENT_SET_NO = 999
REV_AT_EPOCH   = 38378
BSTAR          = .17651358E-3
MEAN_MOTION_DOT = .293E-4
MEAN_MOTION_DDOT = 0

